[Satellite]
VERSION=1.1
NAME=GPS BIIRM-8 (PRN 05)
NICKNAME=GPS BIIRM-8 (PRN 05)
TLE1=1 35752U 09043A   17186.14367187  .00000033  00000-0  00000-0 0  9994
TLE2=2 35752  54.2579 158.7898 0049392  29.0640 131.1835  2.00551001 57794
